OBJECT_NAME,OBJECT_ID,EPOCH,MEAN_MOTION,ECCENTRICITY,INCLINATION,RA_OF_ASC_NODE,ARG_OF_PERICENTER,MEAN_ANOMALY,EPHEMERIS_TYPE,CLASSIFICATION_TYPE,NORAD_CAT_ID,ELEMENT_SET_NO,REV_AT_EPOCH,BSTAR,MEAN_MOTION_DOT,MEAN_MOTION_DDOT
FENGYUN 3D,2017-072A,2026-07-08T05:15:46.689696,14.19743493,.0001927,99.0141,164.0228,28.0549,332.0729,0,U,43010,999,44797,.68785E-4,.99E-6,0
NOAA 20 (JPSS-1),2017-073A,2026-07-08T03:31:59.903904,14.19515554,.000112,98.7773,128.4239,130.1429,229.9846,0,U,43013,999,44744,.41518E-4,.43E-6,0
GOES 17,2018-022A,2026-07-08T03:00:33.473952,1.00271653,.0000587,0.9873,85.3752,63.9331,92.4208,0,U,43226,999,3063,0,-.168E-5,0
SENTINEL-3B,2018-039A,2026-07-08T03:48:16.891776,14.26740691,.0000981,98.6239,256.3890,119.8123,240.3155,0,U,43437,999,42711,.42657E-4,.6E-6,0
FENGYUN 2H,2018-050A,2026-07-08T02:05:57.888384,1.00268427,.0002064,3.0816,78.8361,125.0929,192.8450,0,U,43491,999,2964,0,-.115E-5,0
METOP-C,2018-087A,2026-07-08T04:25:17.159232,14.21517735,.0002202,98.6633,248.4030,102.7632,257.3792,0,U,43689,999,39781,.48724E-4,.63E-6,0
GEO-KOMPSAT-2A,2018-100A,2026-07-07T22:54:38.111328,1.00271978,.000229,0.0277,152.2719,309.6064,295.9585,0,U,43823,999,2783,0,-.328E-5,0
METEOR-M2 2,2019-038A,2026-07-08T05:57:27.313920,14.24371552,.0001155,98.9159,176.8454,16.8578,343.2639,0,U,44387,999,36429,.62202E-4,.98E-6,0
ARKTIKA-M 1,2021-016A,2026-07-06T22:19:47.601984,2.00615031,.72948481,63.2564,54.7781,270.0184,14.5557,0,U,47719,999,3918,0,-.246E-5,0
FENGYUN 3E,2021-062A,2026-07-08T04:49:11.606592,14.19907009,.0002523,98.7501,192.3747,51.2324,308.9077,0,U,49008,999,25956,.17945E-3,.337E-5,0
GOES 18,2022-021A,2026-07-07T23:21:43.012800,1.00271486,.0000562,0.0081,185.3358,351.8450,322.1729,0,U,51850,999,680,0,.112E-5,0
NOAA 21 (JPSS-2),2022-150A,2026-07-08T04:18:40.237632,14.19540290,.0002661,98.7061,127.6162,117.1438,243.0010,0,U,54234,999,18952,.30379E-4,.21E-6,0
METEOSAT-12 (MTG-I1),2022-170C,2026-07-08T04:11:38.603904,1.00266660,.0003944,0.7175,18.3979,82.7187,247.7150,0,U,54743,999,1318,0,.7E-7,0
TIANMU-1 03,2023-039A,2026-07-08T04:39:01.029888,15.47899408,.0003161,97.5246,3.9952,44.3148,315.8354,0,U,55973,999,18408,.18462E-3,.9519E-4,0
TIANMU-1 04,2023-039B,2026-07-08T04:11:59.460000,15.48517210,.0003685,97.5180,3.1316,38.4684,321.6829,0,U,55974,999,18409,.17966E-3,.9464E-4,0
TIANMU-1 05,2023-039C,2026-07-08T04:12:47.839680,15.47821419,.0003529,97.5225,3.5838,64.4792,295.6822,0,U,55975,999,18406,.18253E-3,.9385E-4,0
TIANMU-1 06,2023-039D,2026-07-08T04:18:47.297376,15.48415353,.0003691,97.5232,4.2452,57.7714,302.3893,0,U,55976,999,18409,.18024E-3,.9461E-4,0
FENGYUN 3G,2023-055A,2026-07-08T03:29:13.819776,15.53566571,.0007246,49.9916,237.9584,24.4042,335.7267,0,U,56232,999,18326,.21139E-3,.13292E-3,0
METEOR-M2 3,2023-091A,2026-07-08T04:15:05.486112,14.24048542,.0005114,98.6076,243.7248,105.9710,254.2033,0,U,57166,999,15750,.99851E-5,-.2E-6,0
TIANMU-1 07,2023-101A,2026-07-08T03:51:08.211744,15.30059117,.0004123,97.2583,239.3487,78.9543,281.2162,0,U,57399,999,16485,.13546E-3,.3867E-4,0
TIANMU-1 08,2023-101B,2026-07-08T04:37:11.630208,15.30063083,.0005158,97.2571,239.1475,64.2675,295.9098,0,U,57400,999,16485,.12822E-3,.3657E-4,0
TIANMU-1 09,2023-101C,2026-07-08T04:12:37.908000,15.30102317,.0004712,97.2529,238.5359,80.5388,279.6385,0,U,57401,999,16485,.13599E-3,.3888E-4,0
TIANMU-1 10,2023-101D,2026-07-08T03:26:35.274048,15.30075086,.0006121,97.2608,239.5765,72.8276,287.3634,0,U,57402,999,16484,.13875E-3,.3966E-4,0
FENGYUN 3F,2023-111A,2026-07-08T04:25:18.693696,14.19942675,.0001398,98.6828,258.8010,79.7472,280.3862,0,U,57490,999,15184,.26684E-4,.13E-6,0
ARKTIKA-M 2,2023-198A,2026-07-06T16:49:25.410720,2.00609243,.6907948,63.2193,152.1833,267.3642,18.7597,0,U,58584,999,1871,0,.205E-5,0
TIANMU-1 11,2023-205A,2026-07-08T05:14:21.544224,15.27215689,.0006834,97.3447,210.4468,293.8375,66.2148,0,U,58645,999,14073,.12561E-3,.3278E-4,0
TIANMU-1 12,2023-205B,2026-07-08T04:33:29.862144,15.27045229,.0005486,97.3435,210.1686,267.0607,93.0004,0,U,58646,999,14071,.12718E-3,.3302E-4,0
TIANMU-1 13,2023-205C,2026-07-08T03:47:14.642304,15.27037740,.0005185,97.3463,210.4146,243.2335,116.8374,0,U,58647,999,14070,.1283E-3,.3331E-4,0
TIANMU-1 14,2023-205D,2026-07-08T04:59:25.137312,15.27082279,.0005882,97.3399,209.6292,250.9713,109.0889,0,U,58648,999,14071,.12832E-3,.3337E-4,0
TIANMU-1 19,2023-208A,2026-07-08T04:36:15.562656,15.31900673,.0003945,97.4514,305.6053,226.5147,133.5766,0,U,58660,999,14054,.16107E-3,.4882E-4,0
TIANMU-1 20,2023-208B,2026-07-08T03:33:13.849344,15.33089196,.0005788,97.4457,306.2184,241.0770,118.9892,0,U,58661,999,14063,.15615E-3,.4912E-4,0
