FENGYUN 3D              
1 43010U 17072A   26189.21929039  .00000099  00000+0  68785-4 0  9991
2 43010  99.0141 164.0228 0001927  28.0549 332.0729 14.19743493447976
NOAA 20 (JPSS-1)        
1 43013U 17073A   26189.14722111  .00000043  00000+0  41518-4 0  9993
2 43013  98.7773 128.4239 0001120 130.1429 229.9846 14.19515554447440
GOES 17                 
1 43226U 18022A   26189.12538743 -.00000168  00000+0  00000+0 0  9993
2 43226   0.9873  85.3752 0000587  63.9331  92.4208  1.00271653 30633
SENTINEL-3B             
1 43437U 18039A   26189.15852884  .00000060  00000+0  42657-4 0  9992
2 43437  98.6239 256.3890 0000981 119.8123 240.3155 14.26740691427111
FENGYUN 2H              
1 43491U 18050A   26189.08747556 -.00000115  00000+0  00000+0 0  9999
2 43491   3.0816  78.8361 0002064 125.0929 192.8450  1.00268427 29644
METOP-C                 
1 43689U 18087A   26189.18422638  .00000063  00000+0  48724-4 0  9991
2 43689  98.6633 248.4030 0002202 102.7632 257.3792 14.21517735397814
GEO-KOMPSAT-2A          
1 43823U 18100A   26188.95460777 -.00000328  00000+0  00000+0 0  9992
2 43823   0.0277 152.2719 0002290 309.6064 295.9585  1.00271978 27834
METEOR-M2 2             
1 44387U 19038A   26189.24823280  .00000098  00000+0  62202-4 0  9994
2 44387  98.9159 176.8454 0001155  16.8578 343.2639 14.24371552364299
ARKTIKA-M 1             
1 47719U 21016A   26187.93041206 -.00000246  00000+0  00000+0 0  9998
2 47719  63.2564  54.7781 7294848 270.0184  14.5557  2.00615031 39188
FENGYUN 3E              
1 49008U 21062A   26189.20082878  .00000337  00000+0  17945-3 0  9994
2 49008  98.7501 192.3747 0002523  51.2324 308.9077 14.19907009259566
GOES 18                 
1 51850U 22021A   26188.97341450  .00000112  00000+0  00000+0 0  9996
2 51850   0.0081 185.3358 0000562 351.8450 322.1729  1.00271486  6801
NOAA 21 (JPSS-2)        
1 54234U 22150A   26189.17963238  .00000021  00000+0  30379-4 0  9991
2 54234  98.7061 127.6162 0002661 117.1438 243.0010 14.19540290189526
METEOSAT-12 (MTG-I1)    
1 54743U 22170C   26189.17475236  .00000007  00000+0  00000+0 0  9991
2 54743   0.7175  18.3979 0003944  82.7187 247.7150  1.00266660 13181
TIANMU-1 03             
1 55973U 23039A   26189.19376192  .00009519  00000+0  18462-3 0  9997
2 55973  97.5246   3.9952 0003161  44.3148 315.8354 15.47899408184082
TIANMU-1 04             
1 55974U 23039B   26189.17499375  .00009464  00000+0  17966-3 0  9992
2 55974  97.5180   3.1316 0003685  38.4684 321.6829 15.48517210184098
TIANMU-1 05             
1 55975U 23039C   26189.17555370  .00009385  00000+0  18253-3 0  9993
2 55975  97.5225   3.5838 0003529  64.4792 295.6822 15.47821419184066
TIANMU-1 06             
1 55976U 23039D   26189.17971409  .00009461  00000+0  18024-3 0  9990
2 55976  97.5232   4.2452 0003691  57.7714 302.3893 15.48415353184098
FENGYUN 3G              
1 56232U 23055A   26189.14529884  .00013292  00000+0  21139-3 0  9995
2 56232  49.9916 237.9584 0007246  24.4042 335.7267 15.53566571183268
METEOR-M2 3             
1 57166U 23091A   26189.17714683 -.00000020  00000+0  99851-5 0  9992
2 57166  98.6076 243.7248 0005114 105.9710 254.2033 14.24048542157508
TIANMU-1 07             
1 57399U 23101A   26189.16051171  .00003867  00000+0  13546-3 0  9993
2 57399  97.2583 239.3487 0004123  78.9543 281.2162 15.30059117164859
TIANMU-1 08             
1 57400U 23101B   26189.19249572  .00003657  00000+0  12822-3 0  9996
2 57400  97.2571 239.1475 0005158  64.2675 295.9098 15.30063083164854
TIANMU-1 09             
1 57401U 23101C   26189.17543875  .00003888  00000+0  13599-3 0  9996
2 57401  97.2529 238.5359 0004712  80.5388 279.6385 15.30102317164851
TIANMU-1 10             
1 57402U 23101D   26189.14346382  .00003966  00000+0  13875-3 0  9992
2 57402  97.2608 239.5765 0006121  72.8276 287.3634 15.30075086164842
FENGYUN 3F              
1 57490U 23111A   26189.18424414  .00000013  00000+0  26684-4 0  9990
2 57490  98.6828 258.8010 0001398  79.7472 280.3862 14.19942675151845
ARKTIKA-M 2             
1 58584U 23198A   26187.70098855  .00000205  00000+0  00000+0 0  9994
2 58584  63.2193 152.1833 6907948 267.3642  18.7597  2.00609243 18712
TIANMU-1 11             
1 58645U 23205A   26189.21830491  .00003278  00000+0  12561-3 0  9991
2 58645  97.3447 210.4468 0006834 293.8375  66.2148 15.27215689140735
TIANMU-1 12             
1 58646U 23205B   26189.18992896  .00003302  00000+0  12718-3 0  9998
2 58646  97.3435 210.1686 0005486 267.0607  93.0004 15.27045229140713
TIANMU-1 13             
1 58647U 23205C   26189.15780836  .00003331  00000+0  12830-3 0  9992
2 58647  97.3463 210.4146 0005185 243.2335 116.8374 15.27037740140701
TIANMU-1 14             
1 58648U 23205D   26189.20792983  .00003337  00000+0  12832-3 0  9993
2 58648  97.3399 209.6292 0005882 250.9713 109.0889 15.27082279140714
TIANMU-1 19             
1 58660U 23208A   26189.19184679  .00004882  00000+0  16107-3 0  9990
2 58660  97.4514 305.6053 0003945 226.5147 133.5766 15.31900673140547
TIANMU-1 20             
1 58661U 23208B   26189.14807696  .00004912  00000+0  15615-3 0  9994
2 58661  97.4457 306.2184 0005788 241.0770 118.9892 15.33089196140634
